SMDC ONE 1.2            
1 38759U 12048B   26068.59359052  .00013943  00000+0  57078-3 0  9996
2 38759  64.6579 143.2061 0110458 207.1808 152.3511 15.19069434101016
STARLINK-34728          
1 65455U 25194X   26068.55277591  .00005701  00000+0  39886-3 0  9998
2 65455  97.6017 284.2056 0001664  91.3924 268.7493 15.05662824 29626
