[{"OBJECT_NAME":"SMDC ONE 1.2","OBJECT_ID":"2012-048B","EPOCH":"2026-03-09T14:14:46.220928","MEAN_MOTION":15.19069434,"ECCENTRICITY":0.0110458,"INCLINATION":64.6579,"RA_OF_ASC_NODE":143.2061,"ARG_OF_PERICENTER":207.1808,"MEAN_ANOMALY":152.3511,"EPHEMERIS_TYPE":0,"CLASSIFICATION_TYPE":"U","NORAD_CAT_ID":38759,"ELEMENT_SET_NO":999,"REV_AT_EPOCH":10101,"BSTAR":0.00057078,"MEAN_MOTION_DOT":0.00013943,"MEAN_MOTION_DDOT":0},{"OBJECT_NAME":"STARLINK-34728","OBJECT_ID":"2025-194X","EPOCH":"2026-03-09T13:15:59.838624","MEAN_MOTION":15.05662824,"ECCENTRICITY":0.00016644,"INCLINATION":97.6017,"RA_OF_ASC_NODE":284.2056,"ARG_OF_PERICENTER":91.3924,"MEAN_ANOMALY":268.7493,"EPHEMERIS_TYPE":0,"CLASSIFICATION_TYPE":"U","NORAD_CAT_ID":65455,"ELEMENT_SET_NO":999,"REV_AT_EPOCH":2962,"BSTAR":0.00039886181,"MEAN_MOTION_DOT":5.701e-5,"MEAN_MOTION_DDOT":0}]
